OBJECT_NAME,OBJECT_ID,EPOCH,MEAN_MOTION,ECCENTRICITY,INCLINATION,RA_OF_ASC_NODE,ARG_OF_PERICENTER,MEAN_ANOMALY,EPHEMERIS_TYPE,CLASSIFICATION_TYPE,NORAD_CAT_ID,ELEMENT_SET_NO,REV_AT_EPOCH,BSTAR,MEAN_MOTION_DOT,MEAN_MOTION_DDOT
ION SCV-008,2023-001AU,2026-05-09T05:10:49.391616,15.28095420,.0015989,97.5679,224.9026,146.1289,214.0974,0,U,55051,999,18538,.22121E-3,.6004E-4,0
ION SCV-007,2023-001BD,2026-05-09T11:04:16.955904,14.77517606,.0013785,97.9026,193.2404,100.3253,259.9512,0,U,55060,999,18053,.52654E-4,.325E-5,0
HUYGENS,2023-001CN,2026-05-09T11:27:58.090752,15.39404278,.0008812,97.3265,196.6455,212.8692,147.2007,0,U,55093,999,18641,.20227E-3,.784E-4,0
SHARJAHSAT-1,2023-001CZ,2026-05-09T11:08:57.028416,15.47671960,.000474,97.3187,197.7338,229.0420,131.0421,0,U,55104,999,18650,.29029E-3,.14921E-3,0
HORUS 1,2023-025A,2026-05-09T12:44:55.389696,15.23528622,.0002038,97.3471,204.9342,115.0075,245.1374,0,U,55690,999,17816,.1839E-3,.4322E-4,0
HORUS 2,2023-032A,2026-05-09T12:00:56.119392,15.23370942,.0002304,97.3538,205.6740,152.9811,207.1546,0,U,55844,999,17559,.19261E-3,.4509E-4,0
GLOBAL-19,2023-041B,2026-05-09T03:27:37.648800,15.38202832,.0005004,42.0013,69.6699,60.0901,300.0435,0,U,55982,999,17591,.32685E-3,.12336E-3,0
BRO-9,2023-054H,2026-05-09T13:11:00.146400,15.80467105,.0007563,97.2982,45.2698,130.1454,230.0478,0,U,56185,999,17295,.75683E-3,.145181E-2,0
ION SCV-010,2023-054Q,2026-05-09T11:20:07.101888,15.25857917,.001248,97.3822,19.4672,349.9235,10.1751,0,U,56192,999,17029,.14033E-3,.3527E-4,0
TELEOS-2,2023-057C,2026-05-09T05:33:37.417248,14.96374138,.000087,9.9873,127.8202,276.1636,83.8478,0,U,56310,999,16695,.35476E-3,.4818E-4,0
SNIPE 4,2023-072B,2026-05-09T03:16:47.424000,15.40837371,.0007146,97.5294,333.9445,105.4591,254.7445,0,U,56744,999,16409,.4661E-3,.19068E-3,0
SNIPE 2,2023-072C,2026-05-09T05:20:54.926016,15.44930743,.0006215,97.5293,336.8194,129.3530,230.8269,0,U,56745,999,16422,.44211E-3,.20744E-3,0
2023-072G,2023-072G,2026-05-09T04:25:52.280832,15.48446628,.000544,97.4953,335.5459,119.9148,240.2643,0,U,56749,999,16442,.48032E-3,.25458E-3,0
GEISAT PRECURSOR,2023-084C,2026-05-09T11:32:30.048576,15.34110804,.0007257,97.6170,269.1900,119.0003,241.1968,0,U,56934,999,16159,.20226E-3,.6597E-4,0
BLACKJACK ACES-3,2023-084U,2026-05-09T08:29:30.232032,15.18404225,.0004235,97.6154,264.2691,123.1519,237.0121,0,U,56950,999,16127,.14889E-3,.2993E-4,0
BLACKJACK ACES-2,2023-084Z,2026-05-09T10:13:26.863968,15.18260074,.0002641,97.6151,264.4277,105.2759,254.8767,0,U,56955,999,16129,.25711E-3,.5198E-4,0
BLACKJACK ACES-1,2023-084AA,2026-05-09T08:20:37.476672,15.18335356,.0002215,97.6142,264.1283,92.8698,267.2789,0,U,56956,999,11100,.26001E-3,.5268E-4,0
ION SCV-011,2023-084AB,2026-05-09T12:15:47.896992,15.28462569,.0007631,98.1389,313.2195,162.8201,197.3296,0,U,56957,999,15990,.1522E-3,.4131E-4,0
GHOST-3,2023-084AC,2026-05-09T08:36:34.979616,15.46624948,.0007257,97.6170,275.9006,80.2282,279.9786,0,U,56958,999,16201,.2991E-3,.14833E-3,0
TOMORROW-R2,2023-084AG,2026-05-09T09:44:59.135136,15.87393716,.0000974,97.5931,288.7267,316.5947,43.5247,0,U,56962,999,16287,.5581E-3,.148162E-2,0
AFR-1,2023-084AJ,2026-05-09T12:56:18.911328,15.28219649,.0011972,97.6217,265.3238,112.9425,247.3079,0,U,56964,999,16132,.13987E-3,.3774E-4,0
METEOR-M2 3,2023-091A,2026-05-09T04:09:17.198208,14.24043444,.0002789,98.6113,184.9437,288.8888,71.1988,0,U,57166,999,14896,.15882E-4,-.7E-7,0
UMKA 1 (RS40S),2023-091G,2026-05-09T04:51:11.114208,15.20375818,.0011342,97.5074,188.0576,252.7783,107.2210,0,U,57172,999,15808,.2006E-3,.4304E-4,0
2023-091H,2023-091H,2026-05-09T03:46:30.294048,15.27804174,.000865,97.5067,192.0551,245.8813,114.1522,0,U,57173,999,15834,.31557E-3,.8503E-4,0
2023-091J,2023-091J,2026-05-09T04:31:22.810080,15.13668160,.0011668,97.5083,182.8426,283.8850,76.1083,0,U,57174,999,15773,.13567E-3,.2377E-4,0
CUBEBEL 2 (EU11S),2023-091K,2026-05-09T04:05:15.037152,15.28253642,.0008682,97.5069,192.0633,247.6614,112.3705,0,U,57175,999,15834,.35199E-3,.9626E-4,0
SITRO-AIS 5 (KATYS),2023-091L,2026-05-09T04:41:17.192832,15.28570463,.001042,97.5079,192.7476,234.1855,125.8416,0,U,57176,999,15838,.34678E-3,.9579E-4,0
ZORKIY-2M 1,2023-091M,2026-05-09T04:33:31.495104,15.20401715,.001196,97.5114,188.2894,249.3068,110.6885,0,U,57177,999,15807,.24434E-3,.5264E-4,0
CUBESX-HSE 3 (RS42S),2023-091N,2026-05-09T03:31:00.092640,15.30240667,.0010088,97.5109,194.2676,223.4796,136.5650,0,U,57178,999,15845,.3435E-3,.9989E-4,0
MONITOR-3 (RS58S),2023-091Q,2026-05-09T03:40:29.995680,15.27064584,.0010741,97.5102,192.3328,231.4695,128.5582,0,U,57180,999,15833,.2995E-3,.789E-4,0
